NORAD_CAT_ID,OBJECT_NAME,OBJECT_TYPE,EPOCH,MEAN_MOTION,ECCENTRICITY,INCLINATION,RA_OF_ASC_NODE,ARG_OF_PERICENTER,MEAN_ANOMALY,BSTAR,MEAN_MOTION_DOT,MEAN_MOTION_DDOT,TLE_LINE0,TLE_LINE1,TLE_LINE2,SEMIMAJOR_AXIS,PERIOD,APOGEE,PERIGEE,DECAYED
54159.0,STARLINK-5294,PAYLOAD,2023-11-03 04:43:36,15.08843084,0.000167,53.218,263.6544,83.5901,276.5281,0.00013019,1.785e-05,0.0,0 STARLINK-5294,1 54159U 22141C   23307.19695410  .00001785  00000-0  13019-3 0  9992,2 54159  53.2180 263.6544 0001670  83.5901 276.5281 15.08843084 56266,6917.871,95.437,540.891,538.581,0.0
54159.0,STARLINK-5294,PAYLOAD,2023-11-03 06:18:59,15.08847043,0.0001688,53.2175,263.3587,93.7412,266.3773,0.0002499,3.692e-05,0.0,0 STARLINK-5294,1 54159U 22141C   23307.26319257  .00003692  00000-0  24990-3 0  9991,2 54159  53.2175 263.3587 0001688  93.7412 266.3773 15.08847043 56276,6917.859,95.437,540.892,538.556,0.0
54159.0,STARLINK-5294,PAYLOAD,2023-11-04 06:09:46,15.08852398,0.0001458,53.2166,258.8989,100.5491,259.5665,0.00038761,5.888e-05,0.0,0 STARLINK-5294,1 54159U 22141C   23308.25679109  .00005888  00000-0  38761-3 0  9996,2 54159  53.2166 258.8989 0001458 100.5491 259.5665 15.08852398 56420,6917.842,95.437,540.716,538.699,0.0
54159.0,STARLINK-5294,PAYLOAD,2023-11-04 14:06:43,15.08834486,0.0001808,53.216,257.416,82.319,277.8007,3.3835e-05,2.5e-06,0.0,0 STARLINK-5294,1 54159U 22141C   23308.58799934  .00000250  00000-0  33835-4 0  9997,2 54159  53.2160 257.4160 0001808  82.3190 277.8007 15.08834486 56478,6917.897,95.438,541.013,538.511,0.0
54159.0,STARLINK-5294,PAYLOAD,2023-11-05 02:49:47,15.08844017,0.0001809,53.218,255.0299,105.2659,254.8534,0.0002037,2.956e-05,0.0,0 STARLINK-5294,1 54159U 22141C   23309.11791537  .00002956  00000-0  20370-3 0  9992,2 54159  53.2180 255.0299 0001809 105.2659 254.8534 15.08844017 56553,6917.868,95.437,540.985,538.482,0.0
54159.0,STARLINK-5294,PAYLOAD,2023-11-05 13:57:29,15.08851213,0.0001758,53.2183,252.9492,102.2013,257.9176,0.00031018,4.653e-05,0.0,0 STARLINK-5294,1 54159U 22141C   23309.58159273  .00004653  00000-0  31018-3 0  9995,2 54159  53.2183 252.9492 0001758 102.2013 257.9176 15.08851213 56621,6917.846,95.437,540.927,538.495,0.0
54159.0,STARLINK-5294,PAYLOAD,2023-11-06 02:40:33,15.08919674,0.0001758,53.2171,250.5699,109.65,250.4682,0.0024907,0.00039662,0.0,0 STARLINK-5294,1 54159U 22141C   23310.11149477  .00039662  00000-0  24907-2 0  9997,2 54159  53.2171 250.5699 0001758 109.6500 250.4682 15.08919674 56708,6917.637,95.433,540.718,538.286,0.0
54159.0,STARLINK-5294,PAYLOAD,2023-11-06 05:51:18,15.08934422,0.000183,53.2173,249.9761,108.8575,251.2616,0.0033995,0.00054374,0.0,0 STARLINK-5294,1 54159U 22141C   23310.24396850  .00054374  00000-0  33995-2 0  9994,2 54159  53.2173 249.9761 0001830 108.8575 251.2616 15.08934422 56722,6917.592,95.432,540.723,538.191,0.0
54159.0,STARLINK-5294,PAYLOAD,2023-11-07 04:06:44,15.08778461,0.0001223,53.2163,245.8149,89.4719,270.6413,0.00042852,6.527e-05,0.0,0 STARLINK-5294,1 54159U 22141C   23311.17134418  .00006527  00000-0  42852-3 0  9997,2 54159  53.2163 245.8149 0001223  89.4719 270.6413 15.08778461 56860,6918.068,95.441,540.78,539.087,0.0
54159.0,STARLINK-5294,PAYLOAD,2023-11-08 02:22:09,15.08843879,0.0001347,53.2164,241.6528,94.8292,265.2854,0.0023936,0.00038016,0.0,0 STARLINK-5294,1 54159U 22141C   23312.09872303  .00038016  00000-0  23936-2 0  9990,2 54159  53.2164 241.6528 0001347  94.8292 265.2854 15.08843879 57001,6917.869,95.437,540.665,538.802,0.0
54159.0,STARLINK-5294,PAYLOAD,2023-11-09 02:12:56,15.0885146,0.0001445,53.217,237.1958,103.4283,256.687,0.00055693,8.589e-05,0.0,0 STARLINK-5294,1 54159U 22141C   23313.09232061  .00008589  00000-0  55693-3 0  9990,2 54159  53.2170 237.1958 0001445 103.4283 256.6870 15.08851460 57154,6917.845,95.437,540.71,538.711,0.0
54159.0,STARLINK-5294,PAYLOAD,2023-11-09 22:52:57,15.08836859,0.0001575,53.217,233.33,94.9808,265.1363,0.00017743,2.537e-05,0.0,0 STARLINK-5294,1 54159U 22141C   23313.95344625  .00002537  00000-0  17743-3 0  9996,2 54159  53.2170 233.3300 0001575  94.9808 265.1363 15.08836859 57285,6917.89,95.438,540.845,538.665,0.0
54159.0,STARLINK-5294,PAYLOAD,2023-11-10 02:03:43,15.08840045,0.0001787,53.2171,232.7333,111.6563,248.462,0.00014278,1.985e-05,0.0,0 STARLINK-5294,1 54159U 22141C   23314.08592488  .00001985  00000-0  14278-3 0  9999,2 54159  53.2171 232.7333 0001787 111.6563 248.4620 15.08840045 57300,6917.88,95.438,540.981,538.509,0.0
54159.0,STARLINK-5294,PAYLOAD,2023-11-10 11:36:02,15.08844078,0.0001643,53.2166,230.9482,96.2717,263.8462,0.00041238,6.282e-05,0.0,0 STARLINK-5294,1 54159U 22141C   23314.48336526  .00006282  00000-0  41238-3 0  9993,2 54159  53.2166 230.9482 0001643  96.2717 263.8462 15.08844078 57360,6917.868,95.437,540.87,538.596,0.0
54159.0,STARLINK-5294,PAYLOAD,2023-11-11 03:29:53,15.08846658,0.0001739,53.2172,227.9719,85.011,275.1081,0.00031416,4.716e-05,0.0,0 STARLINK-5294,1 54159U 22141C   23315.14576203  .00004716  00000-0  31416-3 0  9992,2 54159  53.2172 227.9719 0001739  85.0110 275.1081 15.08846658 57465,6917.86,95.437,540.928,538.522,0.0
54159.0,STARLINK-5294,PAYLOAD,2023-11-11 11:26:49,15.08838106,0.0001722,53.217,226.4859,86.5089,273.61,0.00022732,3.331e-05,0.0,0 STARLINK-5294,1 54159U 22141C   23315.47696640  .00003331  00000-0  22732-3 0  9999,2 54159  53.2170 226.4859 0001722  86.5089 273.6100 15.08838106 57515,6917.886,95.438,540.942,538.56,0.0
54159.0,STARLINK-5294,PAYLOAD,2023-11-11 22:34:32,15.08833804,0.0001864,53.2174,224.4033,89.0428,271.0778,-4.9842e-05,-1.081e-05,0.0,0 STARLINK-5294,1 54159U 22141C   23315.94065012 -.00001081  00000-0 -49842-4 0  9998,2 54159  53.2174 224.4033 0001864  89.0428 271.0778 15.08833804 57583,6917.899,95.438,541.054,538.475,0.0
54159.0,STARLINK-5294,PAYLOAD,2023-11-12 01:45:18,15.08836789,0.0001814,53.2178,223.8104,88.5869,271.5331,1.5707e-05,-3.8e-07,0.0,0 STARLINK-5294,1 54159U 22141C   23316.07313175 -.00000038  00000-0  15707-4 0  9992,2 54159  53.2178 223.8104 0001814  88.5869 271.5331 15.08836789 57605,6917.89,95.438,541.01,538.5,0.0
54159.0,STARLINK-5294,PAYLOAD,2023-11-12 22:25:18,15.08851861,0.000169,53.2162,219.946,86.9939,273.1247,0.00028051,4.181e-05,0.0,0 STARLINK-5294,1 54159U 22141C   23316.93424478  .00004181  00000-0  28051-3 0  9993,2 54159  53.2162 219.9460 0001690  86.9939 273.1247 15.08851861 57737,6917.844,95.437,540.878,538.54,0.0
54159.0,STARLINK-5294,PAYLOAD,2023-11-13 00:00:41,15.08855464,0.0001574,53.2158,219.6489,88.6967,271.4205,0.00036489,5.526e-05,0.0,0 STARLINK-5294,1 54159U 22141C   23317.00048363  .00005526  00000-0  36489-3 0  9995,2 54159  53.2158 219.6489 0001574  88.6967 271.4205 15.08855464 57740,6917.833,95.437,540.787,538.609,0.0
54159.0,STARLINK-5294,PAYLOAD,2023-11-13 11:08:23,15.08847934,0.0001651,53.2173,217.5647,89.5138,270.6043,0.00026422,3.92e-05,0.0,0 STARLINK-5294,1 54159U 22141C   23317.46416587  .00003920  00000-0  26422-3 0  9994,2 54159  53.2173 217.5647 0001651  89.5138 270.6043 15.08847934 57818,6917.856,95.437,540.863,538.579,0.0
54159.0,STARLINK-5294,PAYLOAD,2023-11-13 23:51:29,15.08840574,0.0001719,53.2163,215.1882,86.5099,273.6089,5.7372e-05,6.25e-06,0.0,0 STARLINK-5294,1 54159U 22141C   23317.99408904  .00000625  00000-0  57372-4 0  9994,2 54159  53.2163 215.1882 0001719  86.5099 273.6089 15.08840574 57894,6917.879,95.438,540.933,538.554,0.0
54159.0,STARLINK-5294,PAYLOAD,2023-11-14 23:42:16,15.08845302,0.0001743,53.2165,210.7261,86.2034,273.9158,0.00010285,1.349e-05,0.0,0 STARLINK-5294,1 54159U 22141C   23318.98768622  .00001349  00000-0  10285-3 0  9995,2 54159  53.2165 210.7261 0001743  86.2034 273.9158 15.08845302 58043,6917.864,95.437,540.935,538.523,0.0
54159.0,STARLINK-5294,PAYLOAD,2023-11-16 02:43:49,15.08846862,0.0001655,53.2173,205.6716,85.5276,274.5905,0.00016393,2.322e-05,0.0,0 STARLINK-5294,1 54159U 22141C   23320.11376451  .00002322  00000-0  16393-3 0  9996,2 54159  53.2173 205.6716 0001655  85.5276 274.5905 15.08846862 58210,6917.859,95.437,540.869,538.58,0.0
54159.0,STARLINK-5294,PAYLOAD,2023-11-16 18:37:42,15.08797377,0.0002086,53.2175,202.6966,74.1772,285.945,0.0016392,0.00025866,0.0,0 STARLINK-5294,1 54159U 22141C   23320.77618779  .00025866  00000-0  16392-2 0  9996,2 54159  53.2175 202.6966 0002086  74.1772 285.9450 15.08797377 58318,6918.011,95.44,541.319,538.433,0.0
54159.0,STARLINK-5294,PAYLOAD,2023-11-17 08:56:10,15.08842102,0.0001927,53.2174,200.0208,79.3936,280.7273,0.00036928,5.594e-05,0.0,0 STARLINK-5294,1 54159U 22141C   23321.37234202  .00005594  00000-0  36928-3 0  9992,2 54159  53.2174 200.0208 0001927  79.3936 280.7273 15.08842102 58403,6917.874,95.437,541.072,538.406,0.0
54159.0,STARLINK-5294,PAYLOAD,2023-11-18 00:50:00,15.0883688,0.0001509,53.2158,197.0488,93.0472,267.0693,-0.00013311,-2.406e-05,0.0,0 STARLINK-5294,1 54159U 22141C   23322.03473108 -.00002406  00000-0 -13311-3 0  9998,2 54159  53.2158 197.0488 0001509  93.0472 267.0693 15.08836880 58505,6917.89,95.438,540.799,538.711,0.0
54159.0,STARLINK-5294,PAYLOAD,2023-11-18 15:08:29,15.08837129,0.0001506,53.2159,194.3724,91.6784,268.438,0.00010158,1.329e-05,0.0,0 STARLINK-5294,1 54159U 22141C   23322.63089346  .00001329  00000-0  10158-3 0  9998,2 54159  53.2159 194.3724 0001506  91.6784 268.4380 15.08837129 58590,6917.889,95.438,540.796,538.712,0.0
54159.0,STARLINK-5294,PAYLOAD,2023-11-19 08:37:43,15.08841438,0.0001621,53.2173,191.1013,88.6608,271.457,0.00012462,1.696e-05,0.0,0 STARLINK-5294,1 54159U 22141C   23323.35953425  .00001696  00000-0  12462-3 0  9993,2 54159  53.2173 191.1013 0001621  88.6608 271.4570 15.08841438 58707,6917.876,95.437,540.862,538.62,0.0
54159.0,STARLINK-5294,PAYLOAD,2023-11-19 19:45:25,15.08840722,0.0001607,53.2174,189.0208,87.1742,272.9434,0.00018614,2.676e-05,0.0,0 STARLINK-5294,1 54159U 22141C   23323.82321488  .00002676  00000-0  18614-3 0  9997,2 54159  53.2174 189.0208 0001607  87.1742 272.9434 15.08840722 58774,6917.878,95.438,540.855,538.631,0.0
